IRIDIUM 124 [+]         
1 42810U 17039H   17346.47426088  .00000275  00000-0  29545-4 0  9998
2 42810  85.6802 197.4555 0012887  12.7704 347.3842 14.84089729 25155
